GUOWANG_L_00006045-03
1 76498U 22394CC  26070.40776620  .00000000  00000+0  00000-0 0  9990
2 76498  50.0000 330.0000 0000000   0.0000  56.6667 13.30467610    15
GUOWANG_L_00006045-04
1 76499U 22773ED  26070.40776620  .00000000  00000+0  00000-0 0  9992
2 76499  50.0000 330.0000 0000000   0.0000  66.6667 13.30467610    17
GUOWANG_L_00006045-05
1 76500U 23061LM  26070.40776620  .00000000  00000+0  00000-0 0  9996
2 76500  50.0000 330.0000 0000000   0.0000  76.6667 13.30467610    11
GUOWANG_L_00006045-06
1 76501U 23280AF  26070.40776620  .00000000  00000+0  00000-0 0  9990
2 76501  50.0000 330.0000 0000000   0.0000  86.6667 13.30467610    13
GUOWANG_L_00006045-07
1 76502U 25272JX  26070.40776620  .00000000  00000+0  00000-0 0  9994
2 76502  50.0000 330.0000 0000000   0.0000  96.6667 13.30467610    15
GUOWANG_L_00006045-08
1 76503U 25908PD  26070.40776620  .00000000  00000+0  00000-0 0  9991
2 76503  50.0000 330.0000 0000000   0.0000 106.6667 13.30467610    18
GUOWANG_L_00006045-09
1 76504U 23483U   26070.40776620  .00000000  00000+0  00000-0 0  9998
2 76504  50.0000 330.0000 0000000   0.0000 116.6667 13.30467610    10
GUOWANG_L_00006045-10
1 76505U 22852PT  26070.40776620  .00000000  00000+0  00000-0 0  9998
2 76505  50.0000 330.0000 0000000   0.0000 126.6667 13.30467610    12
GUOWANG_L_00006045-11
1 76506U 24268SB  26070.40776620  .00000000  00000+0  00000-0 0  9992
2 76506  50.0000 330.0000 0000000   0.0000 136.6667 13.30467610    14
GUOWANG_L_00006045-12
1 76507U 22495CZ  26070.40776620  .00000000  00000+0  00000-0 0  9993
2 76507  50.0000 330.0000 0000000   0.0000 146.6667 13.30467610    16
GUOWANG_L_00006045-13
1 76508U 26728MG  26070.40776620  .00000000  00000+0  00000-0 0  9997
2 76508  50.0000 330.0000 0000000   0.0000 156.6667 13.30467610    18
GUOWANG_L_00006045-14
1 76509U 26250QK  26070.40776620  .00000000  00000+0  00000-0 0  9998
2 76509  50.0000 330.0000 0000000   0.0000 166.6667 13.30467610    10
GUOWANG_L_00006045-15
1 76510U 25179DK  26070.40776620  .00000000  00000+0  00000-0 0  9999
2 76510  50.0000 330.0000 0000000   0.0000 176.6667 13.30467610    13
GUOWANG_L_00006045-16
1 76511U 25195OF  26070.40776620  .00000000  00000+0  00000-0 0  9998
2 76511  50.0000 330.0000 0000000   0.0000 186.6667 13.30467610    15
GUOWANG_L_00006045-17
1 76512U 26405WK  26070.40776620  .00000000  00000+0  00000-0 0  9994
2 76512  50.0000 330.0000 0000000   0.0000 196.6667 13.30467610    17
GUOWANG_L_00006045-18
1 76513U 25770IG  26070.40776620  .00000000  00000+0  00000-0 0  9999
2 76513  50.0000 330.0000 0000000   0.0000 206.6667 13.30467610    10
GUOWANG_L_00006045-19
1 76514U 22659HV  26070.40776620  .00000000  00000+0  00000-0 0  9993
2 76514  50.0000 330.0000 0000000   0.0000 216.6667 13.30467610    12
GUOWANG_L_00006045-20
1 76515U 24118FI  26070.40776620  .00000000  00000+0  00000-0 0  9996
2 76515  50.0000 330.0000 0000000   0.0000 226.6667 13.30467610    14
GUOWANG_L_00006045-21
1 76516U 23012XR  26070.40776620  .00000000  00000+0  00000-0 0  9999
2 76516  50.0000 330.0000 0000000   0.0000 236.6667 13.30467610    16
GUOWANG_L_00006045-22
1 76517U 22660JG  26070.40776620  .00000000  00000+0  00000-0 0  9998
2 76517  50.0000 330.0000 0000000   0.0000 246.6667 13.30467610    18
GUOWANG_L_00006045-23
1 76518U 25392TD  26070.40776620  .00000000  00000+0  00000-0 0  9994
2 76518  50.0000 330.0000 0000000   0.0000 256.6667 13.30467610    10
GUOWANG_L_00006045-24
1 76519U 25154SL  26070.40776620  .00000000  00000+0  00000-0 0  9991
2 76519  50.0000 330.0000 0000000   0.0000 266.6667 13.30467610    12
GUOWANG_L_00006045-25
1 76520U 22441OP  26070.40776620  .00000000  00000+0  00000-0 0  9999
2 76520  50.0000 330.0000 0000000   0.0000 276.6667 13.30467610    15
GUOWANG_L_00006045-26
1 76521U 22601XX  26070.40776620  .00000000  00000+0  00000-0 0  9998
2 76521  50.0000 330.0000 0000000   0.0000 286.6667 13.30467610    17
GUOWANG_L_00006045-27
1 76522U 23210OH  26070.40776620  .00000000  00000+0  00000-0 0  9996
2 76522  50.0000 330.0000 0000000   0.0000 296.6667 13.30467610    19
GUOWANG_L_00006045-28
1 76523U 26250UT  26070.40776620  .00000000  00000+0  00000-0 0  9994
2 76523  50.0000 330.0000 0000000   0.0000 306.6667 13.30467610    12
GUOWANG_L_00006045-29
1 76524U 23509TD  26070.40776620  .00000000  00000+0  00000-0 0  9999
2 76524  50.0000 330.0000 0000000   0.0000 316.6667 13.30467610    14
GUOWANG_L_00006045-30
1 76525U 24320MO  26070.40776620  .00000000  00000+0  00000-0 0  9992
2 76525  50.0000 330.0000 0000000   0.0000 326.6667 13.30467610    16
GUOWANG_L_00006045-31
1 76526U 23268CB  26070.40776620  .00000000  00000+0  00000-0 0  9993
2 76526  50.0000 330.0000 0000000   0.0000 336.6667 13.30467610    18
GUOWANG_L_00006045-32
1 76527U 25335VJ  26070.40776620  .00000000  00000+0  00000-0 0  9991
2 76527  50.0000 330.0000 0000000   0.0000 346.6667 13.30467610    10
GUOWANG_L_00006045-33
1 76528U 24296VM  26070.40776620  .00000000  00000+0  00000-0 0  9997
2 76528  50.0000 330.0000 0000000   0.0000 356.6667 13.30467610    12
GUOWANG_L_00006045-34
1 76529U 22924PS  26070.40776620  .00000000  00000+0  00000-0 0  9994
2 76529  50.0000 330.0000 0000000   0.0000   6.6667 13.30467610    15
GUOWANG_L_00006045-35
1 76530U 25019KX  26070.40776620  .00000000  00000+0  00000-0 0  9994
2 76530  50.0000 330.0000 0000000   0.0000  16.6667 13.30467610    18
GUOWANG_L_00006045-36
1 76531U 24616ND  26070.40776620  .00000000  00000+0  00000-0 0  9997
2 76531  50.0000 330.0000 0000000   0.0000  26.6667 13.30467610    10
GUOWANG_L_00006046-01
1 76532U 24133FW  26070.40776620  .00000000  00000+0  00000-0 0  9992
2 76532  50.0000 337.5000 0000000   0.0000  37.5000 13.30467610    15
GUOWANG_L_00006046-02
1 76533U 23416AB  26070.40776620  .00000000  00000+0  00000-0 0  9996
2 76533  50.0000 337.5000 0000000   0.0000  47.5000 13.30467610    17
GUOWANG_L_00006046-03
1 76534U 24977CT  26070.40776620  .00000000  00000+0  00000-0 0  9990
2 76534  50.0000 337.5000 0000000   0.0000  57.5000 13.30467610    19
GUOWANG_L_00006046-04
1 76535U 25827YE  26070.40776620  .00000000  00000+0  00000-0 0  9996
2 76535  50.0000 337.5000 0000000   0.0000  67.5000 13.30467610    11
GUOWANG_L_00006046-05
1 76536U 22509FI  26070.40776620  .00000000  00000+0  00000-0 0  9991
2 76536  50.0000 337.5000 0000000   0.0000  77.5000 13.30467610    13
GUOWANG_L_00006046-06
1 76537U 22220NT  26070.40776620  .00000000  00000+0  00000-0 0  9992
2 76537  50.0000 337.5000 0000000   0.0000  87.5000 13.30467610    15
GUOWANG_L_00006046-07
1 76538U 23279ZG  26070.40776620  .00000000  00000+0  00000-0 0  9998
2 76538  50.0000 337.5000 0000000   0.0000  97.5000 13.30467610    17
GUOWANG_L_00006046-08
1 76539U 25124XD  26070.40776620  .00000000  00000+0  00000-0 0  9990
2 76539  50.0000 337.5000 0000000   0.0000 107.5000 13.30467610    10
GUOWANG_L_00006046-09
1 76540U 24804RD  26070.40776620  .00000000  00000+0  00000-0 0  9996
2 76540  50.0000 337.5000 0000000   0.0000 117.5000 13.30467610    13
GUOWANG_L_00006046-10
1 76541U 24989YP  26070.40776620  .00000000  00000+0  00000-0 0  9991
2 76541  50.0000 337.5000 0000000   0.0000 127.5000 13.30467610    15
GUOWANG_L_00006046-11
1 76542U 22663JX  26070.40776620  .00000000  00000+0  00000-0 0  9999
2 76542  50.0000 337.5000 0000000   0.0000 137.5000 13.30467610    17
GUOWANG_L_00006046-12
1 76543U 25923LP  26070.40776620  .00000000  00000+0  00000-0 0  9992
2 76543  50.0000 337.5000 0000000   0.0000 147.5000 13.30467610    19
GUOWANG_L_00006046-13
1 76544U 23702TG  26070.40776620  .00000000  00000+0  00000-0 0  9996
2 76544  50.0000 337.5000 0000000   0.0000 157.5000 13.30467610    11
GUOWANG_L_00006046-14
1 76545U 23608JJ  26070.40776620  .00000000  00000+0  00000-0 0  9992
2 76545  50.0000 337.5000 0000000   0.0000 167.5000 13.30467610    13
GUOWANG_L_00006046-15
1 76546U 26893AO  26070.40776620  .00000000  00000+0  00000-0 0  9992
2 76546  50.0000 337.5000 0000000   0.0000 177.5000 13.30467610    15
GUOWANG_L_00006046-16
1 76547U 25876HO  26070.40776620  .00000000  00000+0  00000-0 0  9993
2 76547  50.0000 337.5000 0000000   0.0000 187.5000 13.30467610    17
GUOWANG_L_00006046-17
1 76548U 24970GA  26070.40776620  .00000000  00000+0  00000-0 0  9998
2 76548  50.0000 337.5000 0000000   0.0000 197.5000 13.30467610    19
GUOWANG_L_00006046-18
1 76549U 26876NB  26070.40776620  .00000000  00000+0  00000-0 0  9996
2 76549  50.0000 337.5000 0000000   0.0000 207.5000 13.30467610    12
GUOWANG_L_00006046-19
1 76550U 22436EA  26070.40776620  .00000000  00000+0  00000-0 0  9996
2 76550  50.0000 337.5000 0000000   0.0000 217.5000 13.30467610    15
GUOWANG_L_00006046-20
1 76551U 22517SK  26070.40776620  .00000000  00000+0  00000-0 0  9997
2 76551  50.0000 337.5000 0000000   0.0000 227.5000 13.30467610    17
GUOWANG_L_00006046-21
1 76552U 23899IF  26070.40776620  .00000000  00000+0  00000-0 0  9992
2 76552  50.0000 337.5000 0000000   0.0000 237.5000 13.30467610    19
GUOWANG_L_00006046-22
1 76553U 22628CT  26070.40776620  .00000000  00000+0  00000-0 0  9992
2 76553  50.0000 337.5000 0000000   0.0000 247.5000 13.30467610    11
GUOWANG_L_00006046-23
1 76554U 25737XH  26070.40776620  .00000000  00000+0  00000-0 0  9997
2 76554  50.0000 337.5000 0000000   0.0000 257.5000 13.30467610    13
GUOWANG_L_00006046-24
1 76555U 24389QD  26070.40776620  .00000000  00000+0  00000-0 0  9990
2 76555  50.0000 337.5000 0000000   0.0000 267.5000 13.30467610    15
GUOWANG_L_00006046-25
1 76556U 22399CQ  26070.40776620  .00000000  00000+0  00000-0 0  9990
2 76556  50.0000 337.5000 0000000   0.0000 277.5000 13.30467610    17
GUOWANG_L_00006046-26
1 76557U 25628TD  26070.40776620  .00000000  00000+0  00000-0 0  9999
2 76557  50.0000 337.5000 0000000   0.0000 287.5000 13.30467610    19
GUOWANG_L_00006046-27
1 76558U 25104RZ  26070.40776620  .00000000  00000+0  00000-0 0  9999
2 76558  50.0000 337.5000 0000000   0.0000 297.5000 13.30467610    11
